STARLINK-35146          
1 65421U 25192T   26200.80387522  .00018232  00000+0  59744-3 0  9999
2 65421  53.1597 337.8319 0000827  83.2119 276.8977 15.31721192 49613
STARLINK-35074          
1 65422U 25192U   26201.00002315 -.00028315  00000+0 -82967-3 0  9995
2 65422  53.1597 337.6452 0001037 100.5145 250.7593 15.34413820  5836
STARLINK-34837          
1 65423U 25192V   26200.68238328  .00019297  00000+0  63170-3 0  9996
2 65423  53.1584 338.4961 0000515  80.0778 280.0281 15.31713817 49600
STARLINK-34670          
1 65424U 25192W   26200.79419873  .00011239  00000+0  37314-3 0  9994
2 65424  53.1619 337.7704 0001091  89.2002 270.9124 15.31721695 49627
STARLINK-35095          
1 65425U 25192X   26201.09754547  .00008332  00000+0  27985-3 0  9992
2 65425  53.1603 336.8151 0001019  98.0430 262.0688 15.31710253 49669
STARLINK-34883          
1 65426U 25192Y   26201.08787509  .00010011  00000+0  33378-3 0  9996
2 65426  53.1599 336.7558 0001439  86.4825 273.6341 15.31715794 49657
STARLINK-34916          
1 65427U 25192Z   26200.37479150  .00011503  00000+0  38167-3 0  9996
2 65427  53.1599 340.1281 0001568  83.2686 276.8493 15.31717830 49558
STARLINK-35004          
1 65428U 25192AA  26201.07727857  .00009716  00000+0  29836-3 0  9991
2 65428  53.1603 337.3949 0001846  83.8081 276.3132 15.34394461 49658
STARLINK-35014          
1 65429U 25192AB  26200.80411051  .00013201  00000+0  40118-3 0  9998
2 65429  53.1600 338.5373 0002216  89.0439 271.0817 15.34397524 49618
STARLINK-35025          
1 65430U 25192AC  26200.78681090  .00021685  00000+0  65041-3 0  9996
2 65430  53.1606 337.0181 0000585  62.7440 297.3622 15.34431890 49636
STARLINK-35034          
1 65431U 25192AD  26200.80200337  .00012615  00000+0  38387-3 0  9997
2 65431  53.1597 338.5241 0001182  81.1793 278.9343 15.34399610 49615
STARLINK-35142          
1 65434U 25194A   26201.13995947  .00003592  00000+0  25263-3 0  9990
2 65434  97.2856  52.5795 0002205  81.0609 279.0868 15.05667605 49573
STARLINK-34978          
1 65435U 25194B   26201.09289608  .00001860  00000+0  13272-3 0  9999
2 65435  97.2844  52.6623 0002480  86.4349 273.7163 15.05658730 49575
STARLINK-35043          
1 65436U 25194C   26201.09233864  .00000757  00000+0  57646-4 0  9991
2 65436  97.3962  53.9768 0002122  77.3183 282.8282 15.04839901 49595
STARLINK-35080          
1 65437U 25194D   26201.09842474 -.00001493  00000+0 -99570-4 0  9997
2 65437  97.2844  52.6527 0002795  96.9916 263.1630 15.05650373 49572
STARLINK-35068          
1 65438U 25194E   26201.14549329 -.00000677  00000+0 -43013-4 0  9991
2 65438  97.2826  52.5915 0002492  76.6758 283.4747 15.05655405 49571
STARLINK-35045          
1 65439U 25194F   26201.10673952  .00002815  00000+0  19887-3 0  9993
2 65439  97.2861  52.6430 0003276  87.2266 272.9337 15.05660900 49571
STARLINK-35050          
1 65440U 25194G   26201.28673271  .00002122  00000+0  15089-3 0  9999
2 65440  97.2839  52.8567 0002233  78.6868 281.4610 15.05658752 49600
STARLINK-35065          
1 65441U 25194H   26201.13442363  .00000665  00000+0  49983-4 0  9991
2 65441  97.2851  52.6045 0002035  90.6637 269.4824 15.05664451 49574
STARLINK-34679          
1 65442U 25194J   26201.09566369  .00001461  00000+0  10512-3 0  9990
2 65442  97.2846  52.6588 0002403  84.7049 275.4453 15.05657679 49570
STARLINK-34678          
1 65443U 25194K   26201.12888622  .00002597  00000+0  18379-3 0  9994
2 65443  97.2851  52.6116 0002030  89.8193 270.3268 15.05660698 49579
STARLINK-35049          
1 65444U 25194L   26201.18150370  .00002506  00000+0  17744-3 0  9998
2 65444  97.2863  52.6929 0002476  93.7834 266.3677 15.05659824 49584
STARLINK-35029          
1 65445U 25194M   26201.10950969  .00001728  00000+0  12362-3 0  9999
2 65445  97.2864  52.6387 0003146  83.8563 276.3023 15.05658481 49571
STARLINK-34991          
1 65446U 25194N   26201.10119994  .00002227  00000+0  15818-3 0  9999
2 65446  97.2852  52.6513 0002506  84.5709 275.5804 15.05658982 49573
STARLINK-34920          
1 65447U 25194P   26201.09012846  .00002521  00000+0  17855-3 0  9996
2 65447  97.2838  52.6645 0002364  82.7418 277.4079 15.05658760 49572
STARLINK-35030          
1 65448U 25194Q   26201.12058153  .00002716  00000+0  19203-3 0  9997
2 65448  97.2859  52.6219 0002397  81.2091 278.9408 15.05659613 49570
STARLINK-35009          
1 65449U 25194R   26201.28119390  .00002926  00000+0  20659-3 0  9996
2 65449  97.2855  52.8646 0002106 106.2861 253.8598 15.05660932 49606
STARLINK-34970          
1 65450U 25194S   26201.14273616  .00003573  00000+0  25128-3 0  9990
2 65450  97.2858  52.5918 0001869  66.2779 293.8645 15.05669732 49578
STARLINK-35039          
1 65451U 25194T   26201.11227668  .00001306  00000+0  94388-4 0  9991
2 65451  97.2866  52.6350 0002612  82.9399 277.2126 15.05657486 49572
STARLINK-35084          
1 65452U 25194U   26201.12611728  .00002621  00000+0  18544-3 0  9997
2 65452  97.2853  52.6155 0002486  82.5294 277.6217 15.05660356 49576
