OBJECT_NAME,OBJECT_ID,EPOCH,MEAN_MOTION,ECCENTRICITY,INCLINATION,RA_OF_ASC_NODE,ARG_OF_PERICENTER,MEAN_ANOMALY,EPHEMERIS_TYPE,CLASSIFICATION_TYPE,NORAD_CAT_ID,ELEMENT_SET_NO,REV_AT_EPOCH,BSTAR,MEAN_MOTION_DOT,MEAN_MOTION_DDOT
STARLINK-35146,2025-192T,2026-07-19T19:17:34.819008,15.31721192,.00008278,53.1597,337.8319,83.2119,276.8977,0,U,65421,999,4961,.59743508E-3,.18232E-3,0
STARLINK-35074,2025-192U,2026-07-20T00:00:02.000160,15.34413820,.00010379,53.1597,337.6452,100.5145,250.7593,0,U,65422,999,583,-.82967188E-3,-.28315E-3,0
STARLINK-34837,2025-192V,2026-07-19T16:22:37.915392,15.31713817,.00005155,53.1584,338.4961,80.0778,280.0281,0,U,65423,999,4960,.63169792E-3,.19297E-3,0
STARLINK-34670,2025-192W,2026-07-19T19:03:38.770272,15.31721695,.00010911,53.1619,337.7704,89.2002,270.9124,0,U,65424,999,4962,.37313513E-3,.11239E-3,0
STARLINK-35095,2025-192X,2026-07-20T02:20:27.928608,15.31710253,.00010197,53.1603,336.8151,98.0430,262.0688,0,U,65425,999,4966,.27985071E-3,.8332E-4,0
STARLINK-34883,2025-192Y,2026-07-20T02:06:32.407776,15.31715794,.00014391,53.1599,336.7558,86.4825,273.6341,0,U,65426,999,4965,.3337807E-3,.10011E-3,0
STARLINK-34916,2025-192Z,2026-07-19T08:59:41.985600,15.31717830,.00015681,53.1599,340.1281,83.2686,276.8493,0,U,65427,999,4955,.38166675E-3,.11503E-3,0
STARLINK-35004,2025-192AA,2026-07-20T01:51:16.868448,15.34394461,.00018461,53.1603,337.3949,83.8081,276.3132,0,U,65428,999,4965,.29836062E-3,.9716E-4,0
STARLINK-35014,2025-192AB,2026-07-19T19:17:55.148064,15.34397524,.00022167,53.1600,338.5373,89.0439,271.0817,0,U,65429,999,4961,.40117969E-3,.13201E-3,0
STARLINK-35025,2025-192AC,2026-07-19T18:53:00.461760,15.34431890,.00005854,53.1606,337.0181,62.7440,297.3622,0,U,65430,999,4963,.65040673E-3,.21685E-3,0
STARLINK-35034,2025-192AD,2026-07-19T19:14:53.091168,15.34399610,.00011829,53.1597,338.5241,81.1793,278.9343,0,U,65431,999,4961,.38387104E-3,.12615E-3,0
STARLINK-35142,2025-194A,2026-07-20T03:21:32.498208,15.05667605,.00022055,97.2856,52.5795,81.0609,279.0868,0,U,65434,999,4957,.25263144E-3,.3592E-4,0
STARLINK-34978,2025-194B,2026-07-20T02:13:46.221312,15.05658730,.00024805,97.2844,52.6623,86.4349,273.7163,0,U,65435,999,4957,.13272089E-3,.186E-4,0
STARLINK-35043,2025-194C,2026-07-20T02:12:58.058496,15.04839901,.00021226,97.3962,53.9768,77.3183,282.8282,0,U,65436,999,4959,.57646289E-4,.757E-5,0
STARLINK-35080,2025-194D,2026-07-20T02:21:43.897536,15.05650373,.00027955,97.2844,52.6527,96.9916,263.1630,0,U,65437,999,4957,-.99569694E-4,-.1493E-4,0
STARLINK-35068,2025-194E,2026-07-20T03:29:30.620256,15.05655405,.00024923,97.2826,52.5915,76.6758,283.4747,0,U,65438,999,4957,-.43013022E-4,-.677E-5,0
STARLINK-35045,2025-194F,2026-07-20T02:33:42.294528,15.05660900,.00032766,97.2861,52.6430,87.2266,272.9337,0,U,65439,999,4957,.19887301E-3,.2815E-4,0
STARLINK-35050,2025-194G,2026-07-20T06:52:53.706144,15.05658752,.00022331,97.2839,52.8567,78.6868,281.4610,0,U,65440,999,4960,.15088755E-3,.2122E-4,0
STARLINK-35065,2025-194H,2026-07-20T03:13:34.201632,15.05664451,.00020355,97.2851,52.6045,90.6637,269.4824,0,U,65441,999,4957,.49983045E-4,.665E-5,0
STARLINK-34679,2025-194J,2026-07-20T02:17:45.342816,15.05657679,.00024037,97.2846,52.6588,84.7049,275.4453,0,U,65442,999,4957,.10512323E-3,.1461E-4,0
STARLINK-34678,2025-194K,2026-07-20T03:05:35.769408,15.05660698,.00020304,97.2851,52.6116,89.8193,270.3268,0,U,65443,999,4957,.18379249E-3,.2597E-4,0
STARLINK-35049,2025-194L,2026-07-20T04:21:21.919680,15.05659824,.00024768,97.2863,52.6929,93.7834,266.3677,0,U,65444,999,4958,.17744388E-3,.2506E-4,0
STARLINK-35029,2025-194M,2026-07-20T02:37:41.637216,15.05658481,.0003146,97.2864,52.6387,83.8563,276.3023,0,U,65445,999,4957,.12362144E-3,.1728E-4,0
STARLINK-34991,2025-194N,2026-07-20T02:25:43.674816,15.05658982,.0002506,97.2852,52.6513,84.5709,275.5804,0,U,65446,999,4957,.15818042E-3,.2227E-4,0
STARLINK-34920,2025-194P,2026-07-20T02:09:47.098944,15.05658760,.00023643,97.2838,52.6645,82.7418,277.4079,0,U,65447,999,4957,.17855324E-3,.2521E-4,0
STARLINK-35030,2025-194Q,2026-07-20T02:53:38.244192,15.05659613,.00023975,97.2859,52.6219,81.2091,278.9408,0,U,65448,999,4957,.19202828E-3,.2716E-4,0
STARLINK-35009,2025-194R,2026-07-20T06:44:55.152960,15.05660932,.00021061,97.2855,52.8646,106.2861,253.8598,0,U,65449,999,4960,.20658501E-3,.2926E-4,0
STARLINK-34970,2025-194S,2026-07-20T03:25:32.404224,15.05669732,.0001869,97.2858,52.5918,66.2779,293.8645,0,U,65450,999,4957,.25127753E-3,.3573E-4,0
STARLINK-35039,2025-194T,2026-07-20T02:41:40.705152,15.05657486,.00026125,97.2866,52.6350,82.9399,277.2126,0,U,65451,999,4957,.94388033E-4,.1306E-4,0
STARLINK-35084,2025-194U,2026-07-20T03:01:36.532992,15.05660356,.00024868,97.2853,52.6155,82.5294,277.6217,0,U,65452,999,4957,.1854446E-3,.2621E-4,0
